{"type":"FeatureCollection","crs":{"type":"name","properties":{"name":"urn:ogc:def:crs:OGC:1.3:CRS84"}},"source":"© GeoBasis-DE / BKG 2013 (Daten verändert)","features":[{"type":"Feature","geometry":{"type":"LineString","coordinates":[[6.684769825078547,51.12180518684909],[6.684769070707262,51.12180271418765],[6.684772674925625,51.12180229509249],[6.684745014645159,51.121675309259444],[6.684741578064859,51.121675602626055],[6.684740907512605,51.12167300423607],[6.684744176454842,51.12167271086946],[6.684734537266195,51.12162870587781],[6.684828917495906,51.12162028206512],[6.684846100397408,51.12161860568449],[6.684926231391728,51.12161198398098],[6.684933607466519,51.121641907375306],[6.684948359616101,51.12170720240101],[6.68492631521076,51.12170921405777],[6.684943330474198,51.12178779440001],[6.684946767054498,51.121787501033396],[6.684947437606752,51.12179001560435],[6.684769825078547,51.12180518684909]]},"properties":{"fax":"+4921829026","name":"Hotel - Restaurant Stenbrock","phone":"+4921827145","tourism":"hotel","website":"http://www.hotel-stenbrock.de/","building":"yes","addr:city":"Grevenbroich","addr:street":"Jakobusplatz","addr:country":"DE","addr:postcode":"41516","addr:housename":"Hotel - Restaurant Stenbrock - \"Zum guten Tröpfchen\"","addr:housenumber":"7"}},
{"type":"Feature","geometry":{"type":"LineString","coordinates":[[6.688073636032641,51.1990256072022],[6.6881594667211175,51.19904941180721],[6.688175811432302,51.199053896125406],[6.688164076767862,51.199070492293686],[6.688248482532799,51.1990937939845],[6.688394914381206,51.19888571323827],[6.688340934924781,51.198870793450624],[6.6883567767217755,51.198845186736435],[6.6883520828559995,51.198837684933096],[6.688340767286718,51.19883311679587],[6.688340432010591,51.198821214493364],[6.688333139754832,51.19880818063393],[6.688326518051326,51.1987993796356],[6.688312184996903,51.198795314412564],[6.688314699567854,51.19879179401323],[6.688253092579544,51.19877440156415],[6.688250578008592,51.198778005782515],[6.688240016810596,51.198776497039944],[6.688224007375538,51.198775281663984],[6.6882127756252885,51.1987798078917],[6.688203387893736,51.19878948898986],[6.688163070939481,51.198844180908054],[6.688142116181552,51.19885088643059],[6.6881141206249595,51.1988902813755],[6.688114372082055,51.19889510096982],[6.6881188144907355,51.198898705188185],[6.688156113959849,51.19890838628635],[6.688073636032641,51.1990256072022]]},"properties":{"fax":"+49 2131 12893-52","name":"Hamtorhotel","email":"hamtorhotel@ymail.com","phone":"+49 2131 12893-55","stars":"3","source":"Bing","tourism":"hotel","website":"http://www.hamtorhotel-neuss.de/","building":"yes","addr:city":"Neuss","addr:street":"Hamtorwall","addr:postcode":"41460","internet_access":"wlan","addr:housenumber":"17-19"}},
{"type":"Feature","geometry":{"type":"LineString","coordinates":[[6.878999308682978,51.11640749266371],[6.878930828534067,51.1164323030971],[6.878997213207185,51.116504680830985],[6.879203994758427,51.11643008189276],[6.87913769390434,51.11635762033984],[6.878999308682978,51.11640749266371]]},"properties":{"name":"Baumberger Rheinterrassen","tourism":"hotel","building":"house","addr:city":"Monheim am Rhein","wheelchair":"no","addr:street":"Klappertorstraße","addr:country":"DE","addr:postcode":"40789","contact:email":"info@baumberger-rheinterrassen.de","contact:phone":"+49 2173 96460","contact:website":"http://www.baumberger-rheinterrassen.de/","addr:housenumber":"47"}},
{"type":"Feature","geometry":{"type":"LineString","coordinates":[[6.8162213684991,51.14109580172226],[6.816299990750849,51.14103691885248],[6.816332680173218,51.14105401793495],[6.816424378193915,51.14098520250991],[6.8165143160149455,51.141032392624766],[6.816499060951173,51.14104379201308],[6.81639286223799,51.14112342009321],[6.816443488933146,51.14114999072626],[6.816379786469042,51.141197809483856],[6.816321616061032,51.14116721553728],[6.816244167275727,51.14122530212626],[6.816129167564213,51.14116491051391],[6.8162213684991,51.14109580172226]]},"properties":{"fax":"+49 2133 974208","name":"Vater Rhein","note":"opening_hours apply for restaurant","email":"info@gasthof-vaterrhein.de","phone":"+49 2133 71930","rooms":"14","amenity":"restaurant","cuisine":"german","smoking":"no","tourism":"hotel","website":"http://www.gasthof-vaterrhein.de/","building":"yes","operator":"Hotel-Gasthof „Vater Rhein\" GmbH","addr:city":"Dormagen","addr:street":"Oberstraße","addr:country":"DE","addr:postcode":"41541","opening_hours":"Mo,Tu,Th-Sa 17:00+; We off; Su 11:00+","internet_access":"wlan","addr:housenumber":"4"}},
{"type":"Feature","geometry":{"type":"LineString","coordinates":[[6.733946534805,51.26061809482053],[6.734518767334521,51.26017708098516],[6.734716580249369,51.260278585832566],[6.734142419882119,51.26071918057278],[6.734379963018,51.26083841314539],[6.734951105900109,51.260397692676634],[6.735147158615291,51.260500580538064],[6.73457785975188,51.260940085630864],[6.734263286925852,51.26119062071666],[6.7336002783849835,51.26085769152269],[6.733946534805,51.26061809482053]]},"properties":{"fax":"+49 211 30275-100","name":"Tulip Inn Düsseldorf Arena - Hotel","email":"info@tulipinnduesseldorfarena.com","layer":"3","phone":"+49 211 30275-0","rooms":"288","tourism":"hotel","website":"http://www.tulipinnduesseldorfarena.com/","building":"yes","operator":"Hotel an der Multifunktionsarena Düsseldorf Betriebsgesellschaft mbH","addr:city":"Düsseldorf","wheelchair":"yes","addr:street":"Arena-Straße","addr:country":"DE","addr:postcode":"40474","building:levels":"4","internet_access":"wlan","addr:housenumber":"3","wheelchair:description":"3 barrierefreie Einzelzimmer"}},
{"type":"Feature","geometry":{"type":"LineString","coordinates":[[6.7449088068678975,51.35676988167688],[6.744884331710637,51.35684070875868],[6.745329829864204,51.356900890823454],[6.74532622564584,51.35691631352529],[6.745334188453853,51.356936094816774],[6.7453538021072745,51.356952481437474],[6.745381881482899,51.35696291690692],[6.745414319448173,51.35696589248255],[6.7454460030421615,51.35696090525016],[6.745472238399088,51.3569485838525],[6.7454890022054315,51.35693110758439],[6.7454936960712075,51.356910907197744],[6.745485565625131,51.35689100017771],[6.745466119609773,51.35687469737604],[6.745461509563029,51.35687297908589],[6.745763006620109,51.35666519170627],[6.745691425167024,51.35662470711395],[6.745717660523951,51.35660651838407],[6.745658735744655,51.35657320031896],[6.7456324165686965,51.35659130522981],[6.745532839559019,51.35653489502147],[6.74529739189893,51.35669708484784],[6.744950213469565,51.35665018809959],[6.744926911778748,51.35671749478206],[6.744896988384426,51.356713387649506],[6.744878799654543,51.356765900272876],[6.7449088068678975,51.35676988167688]]},"properties":{"name":"Landhaus Milser","tourism":"hotel","building":"yes"}},
{"type":"Feature","geometry":{"type":"LineString","coordinates":[[6.737599787302315,51.28757299622521],[6.73775393050164,51.287597010377795],[6.737798773683608,51.287484399508685],[6.737644714303315,51.2874603853561],[6.737599787302315,51.28757299622521]]},"properties":{"name":"City Partner Hotel - Villa Fiore","phone":"+49 0203 45 69 00","tourism":"hotel","building":"yes","addr:city":"Düsseldorf","addr:street":"Niederrheinstraße","addr:country":"DE","addr:postcode":"40489","addr:housenumber":"270"}},
{"type":"Feature","geometry":{"type":"LineString","coordinates":[[6.77645820658654,51.204947002697736],[6.776454937644303,51.204921312164515],[6.776413363404572,51.20492340764031],[6.776408418081701,51.204884096514434],[6.776441861875355,51.2048824201338],[6.776439263485372,51.20486230356619],[6.776445969007909,51.204861800652],[6.776442867703736,51.2048390856944],[6.776614780537784,51.20482990751043],[6.776629616506398,51.204938914161175],[6.77645820658654,51.204947002697736]]},"properties":{"tourism":"hotel","building":"yes","addr:city":"Düsseldorf","addr:street":"Merowingerstraße","addr:country":"DE","addr:postcode":"40223","source:outline":"ALK NRW","addr:housenumber":"37","building:use:gastronomy":"yes","building:use:accommodation":"yes"}},
{"type":"Feature","geometry":{"type":"LineString","coordinates":[[6.869927323423326,51.33827529614791],[6.869936627335846,51.33824549848214],[6.869858507998288,51.338232380803674],[6.869871080853045,51.338191896211356],[6.869906703941524,51.33819629671052],[6.8699113978073,51.33815530920401],[6.869905781932175,51.33815451292321],[6.869907039217651,51.338151118252426],[6.869917684234679,51.33815229171887],[6.869932604022324,51.3381032156758],[6.870215241797268,51.33813791675493],[6.870207111351192,51.338164194021374],[6.870501735247672,51.338200403843075],[6.870481199584901,51.33826649514958],[6.87054708134383,51.33827470941469],[6.870522606186569,51.3383527030237],[6.870515733025968,51.3383519067429],[6.870509195141494,51.338372400496155],[6.870560492388904,51.33837881265208],[6.870567197911441,51.33835748070851],[6.870868024416268,51.33839440299198],[6.870840531773865,51.338483083527535],[6.870812536217272,51.33847960503772],[6.870791330002248,51.33854741463438],[6.870312807150185,51.33848848985508],[6.870340467430651,51.338400018867105],[6.8703548004850745,51.33840169524774],[6.870370893739164,51.33834960171953],[6.870049615390599,51.33831020677462],[6.870055566541851,51.33829109603539],[6.869927323423326,51.33827529614791]]},"properties":{"name":"Landhotel Krummenweg","tourism":"hotel","building":"commercial","addr:city":"Ratingen","wheelchair":"limited","addr:street":"Am Sondert","addr:country":"DE","addr:postcode":"40885","addr:housenumber":"2"}},
{"type":"Feature","geometry":{"type":"LineString","coordinates":[[6.7787312949076295,51.23910221038386],[6.77879826631397,51.23901998391375],[6.778981829993427,51.239078699145466],[6.7789147747680545,51.23916079988703],[6.7787312949076295,51.23910221038386]]},"properties":{"fax":"+49 211 494590","name":"Hotel National Düsseldorf","phone":"+49 211 5135610","source":"Bing Sat","tourism":"hotel","website":"http://www.hotel-national.de/","building":"yes","addr:city":"Düsseldorf","addr:street":"Schwerinstraße","addr:country":"DE","addr:postcode":"40477","bett+bike:ref":"NRW-1532","contact:email":"info@hotel-national.de","addr:housenumber":"16"}},
{"type":"Feature","geometry":{"type":"LineString","coordinates":[[6.951880124397576,51.25643271720037],[6.951905018649995,51.25671870773658],[6.952101574279368,51.256712002214044],[6.9520766800269485,51.25642601167783],[6.95202152710408,51.256427897606045],[6.9520165817812085,51.25637140357867],[6.951992609538138,51.256096099969],[6.951701086945832,51.25610611634329],[6.95171759929508,51.25629558926448],[6.951458682306111,51.25630439026281],[6.951454491354525,51.256256697233766],[6.95103598292917,51.256270988378674],[6.951053417287767,51.256471902597696],[6.951315435580909,51.256463017780334],[6.9513421738520265,51.25677151372656],[6.951561528258026,51.256764095742255],[6.951533700339496,51.256444493774325],[6.951880124397576,51.25643271720037]]},"properties":{"name":"Best Western Grand City Hotel Düsseldorf Mettmann","phone":"+49 2104 986-0","amenity":"restaurant","tourism":"hotel","website":"http://www.hotel-mettmann.bestwestern.de","building":"yes","addr:city":"Mettmann","wheelchair":"yes","addr:street":"Peckhauser Straße","addr:postcode":"40822","internet_access":"wlan","addr:housenumber":"5","internet_access:fee":"no"}},
{"type":"Feature","geometry":{"type":"LineString","coordinates":[[6.856415779329836,51.35372159304097],[6.856487528420985,51.3536909990944],[6.85655910987407,51.3537562941201],[6.856544776819646,51.35376241290942],[6.856667320244014,51.35387418558821],[6.857465277425945,51.353533084038645],[6.857350026257336,51.35342789115384],[6.856790198944509,51.35366711067036],[6.856713672168553,51.35359728941694],[6.856758096255362,51.353578304406255],[6.856429106555879,51.35327798081562],[6.856258786283433,51.35335081955418],[6.8563512386754155,51.35343509959057],[6.85618142131716,51.353507686872035],[6.856415779329836,51.35372159304097]]},"properties":{"name":"Mercure Hotel Düsseldorf Airport","tourism":"hotel","building":"yes","addr:street":"Lintorfer Weg","addr:postcode":"40885","addr:housenumber":"75"}},
{"type":"Feature","geometry":{"type":"LineString","coordinates":[[6.8548925360664725,51.35424571344629],[6.855414225719869,51.35400268016383],[6.855299226008356,51.353906414005905],[6.855093534104526,51.3539989083074],[6.854777620173991,51.35414940537885],[6.8548925360664725,51.35424571344629]]},"properties":{"name":"ibis budget Düsseldorf Airport","phone":"+49 2102185298","tourism":"hotel","building":"hotel","old_name":"Etap Hotel Düsseldorf Nord","operator":"Accor Hotels","addr:city":"Ratingen","wheelchair":"yes","addr:street":"Lintorfer Weg","addr:country":"DE","addr:postcode":"40885","internet_access":"wlan","addr:housenumber":"69"}},
{"type":"Feature","geometry":{"type":"LineString","coordinates":[[6.860050172545016,51.23447418445721],[6.860035085119307,51.234375110361725],[6.8600237695500255,51.23437129659578],[6.859985128976405,51.23436098685488],[6.85991648118943,51.23436697991565],[6.8598117073997855,51.23437620000914],[6.85973912011832,51.23439560411498],[6.85976208653301,51.23450129991397],[6.8597996374592185,51.234495809767395],[6.859804498963058,51.23449928825721],[6.859840960241854,51.23449828242883],[6.859848671592772,51.23449149308726],[6.859976914711297,51.234480219427496],[6.8599837040528655,51.23448390746489],[6.860017483122647,51.23448139289394],[6.860025613568723,51.234474980738014],[6.860050172545016,51.23447418445721]]},"properties":{"fax":"+49 211/9 29 40 50","name":"Concorde Hotel Ascot","phone":"+49 211/92 94 00","source":"Bing/Aerowest","tourism":"hotel","website":"www.concordehotel-ascot.de","building":"yes","addr:city":"Düsseldorf","addr:street":"Schönaustraße","addr:country":"DE","addr:postcode":"40625","addr:housenumber":"15"}},
{"type":"Feature","geometry":{"type":"LineString","coordinates":[[6.930898209102452,51.16940530249849],[6.930280295200646,51.16911939578131],[6.930481377057731,51.16894861450419],[6.930661671794951,51.169032014440745],[6.930593359284103,51.16909001721069],[6.930883037857711,51.16922400193289],[6.930945231579244,51.16917119594291],[6.930746580474079,51.16907928837463],[6.930844062007964,51.168996391352266],[6.931190569885075,51.16915677906945],[6.930898209102452,51.16940530249849]]},"properties":{"fax":"+49 2103 503-444","url":"http://www.AMBER-HOTELS.de/Hotel-Hilden-Duesseldorf","name":"AMBER HOTEL Hilden/Düsseldorf","phone":"+49 2103 503-0","stars":"4","tourism":"hotel","building":"yes","addr:street":"Schwanenstraße","addr:housenumber":"27"}},
{"type":"Feature","geometry":{"type":"LineString","coordinates":[[6.7416082648560405,51.30432951031253],[6.7417401960119605,51.304292210843414],[6.741689988411963,51.304222892504185],[6.741558141075075,51.3042601919733],[6.7416082648560405,51.30432951031253]]},"properties":{"name":"Hotel Kaiserswerth","tourism":"hotel","building":"yes","addr:city":"Düsseldorf","addr:street":"Arnheimer Straße","addr:country":"DE","addr:postcode":"40489","addr:housenumber":"37"}},
{"type":"Feature","geometry":{"type":"LineString","coordinates":[[6.637625894509256,51.22013291576877],[6.637995117343962,51.22005840064958],[6.637766961939633,51.2196149979718],[6.6378677962347865,51.21959458803758],[6.637653219513595,51.21917742071673],[6.637307130731642,51.21924728387967],[6.637272681109607,51.21918048011139],[6.637147958390415,51.21920570963994],[6.637177881784737,51.219263796228915],[6.637087776325643,51.219281901139766],[6.637301095761359,51.21969659579918],[6.637392123229802,51.219678197521716],[6.637625894509256,51.22013291576877]]},"properties":{"name":"Park Inn Düsseldorf Kaarst","tourism":"hotel","building":"yes","wheelchair":"yes"}},
{"type":"Feature","geometry":{"type":"LineString","coordinates":[[6.647354518063366,51.34781101020053],[6.6473518358543515,51.3477194798179],[6.647499189712107,51.34771780343726],[6.6475020395591855,51.34780929191038],[6.6474063182249665,51.34781059110537],[6.647354518063366,51.34781101020053]]},"properties":{"name":"Zur Brücke","tourism":"hotel","building":"yes","addr:city":"Krefeld","addr:street":"Viktor-Jakubowicz-Straße","addr:country":"DE","addr:postcode":"47829","building:levels":"1","addr:housenumber":"4"}},
{"type":"Feature","geometry":{"type":"LineString","coordinates":[[6.812186404131353,51.30321010714397],[6.812066626735032,51.3030148926191],[6.811849367804825,51.303066986147314],[6.811826569028199,51.30302981240675],[6.811720286495984,51.30305529339239],[6.8118628626689315,51.30328768165782],[6.812186404131353,51.30321010714397]]},"properties":{"name":"Villa Ratingen","amenity":"restaurant","cuisine":"italian","tourism":"hotel","building":"yes","addr:city":"Ratingen","addr:street":"Sohlstättenstraße","addr:country":"DE","addr:postcode":"40880","addr:housenumber":"66"}},
{"type":"Feature","geometry":{"type":"LineString","coordinates":[[6.778013720177114,51.238079199101776],[6.777846333570778,51.23825228540227],[6.777680539526045,51.238189085852355],[6.777665535919368,51.238183218520135],[6.7778413044288754,51.238002001773566],[6.777860163711011,51.2380087072961],[6.7778683779761195,51.2379983975552],[6.7778810346499085,51.237993116956204],[6.777874161489308,51.23798691434786],[6.77787181455642,51.23797949636355],[6.777874077670276,51.23797212028876],[6.777880699373782,51.23796570813283],[6.777890673838556,51.23796151718125],[6.777902492322028,51.23795988271013],[6.777914394624531,51.23796118190512],[6.777924536727369,51.237965289037675],[6.777931326068938,51.23797149164602],[6.777947838418186,51.2379664205946],[6.7780209286138415,51.237957493867725],[6.778022269718349,51.23795741004869],[6.77802721504122,51.23797061154619],[6.77802721504122,51.23797111446038],[6.778124109841883,51.23795879306272],[6.778155374340713,51.238062812481076],[6.778013720177114,51.238079199101776]]},"properties":{"name":"Hotel Indigo DÜSSELDORF - VICTORIAPLATZ","email":"HotelIndigo@reservations.ihg.com","phone":"+49 211 49990","tourism":"hotel","website":"http://www.ihg.com/hotelindigo","building":"yes","operator":"Intercontinental Hotels Group","addr:city":"Düsseldorf","wheelchair":"yes","addr:street":"Kaiserswerther Straße","addr:country":"DE","addr:postcode":"40477","internet_access":"wlan","addr:housenumber":"20","internet_access:fee":"yes","building:use:residential":"yes"}},
{"type":"Feature","geometry":{"type":"LineString","coordinates":[[6.736374436877668,51.29460168303922],[6.73636136110872,51.294593007769436],[6.736248289234936,51.29451488843188],[6.736249127425253,51.294514301698655],[6.736282990314066,51.294494981411844],[6.736286678351462,51.294497412163764],[6.736313835717738,51.294482115190476],[6.7363100638613105,51.29447951680049],[6.736316015012562,51.29447591258213],[6.736364462412894,51.29444829421118],[6.736424309201539,51.29441459896043],[6.736427913419902,51.29441711353138],[6.736453562043607,51.29440248711035],[6.736576105467975,51.29448630614206],[6.736374436877668,51.29460168303922]]},"properties":{"tourism":"hotel","building":"yes","addr:city":"Düsseldorf","addr:street":"Niederrheinstraße","addr:country":"DE","addr:postcode":"40489","addr:housenumber":"363","building:use:accommodation":"yes"}},
{"type":"Feature","geometry":{"type":"LineString","coordinates":[[6.798309995792806,51.13520118640736],[6.798313767649233,51.13519561244175],[6.798352994956076,51.13514058524743],[6.798402699641883,51.135071099270135],[6.798636638559401,51.13513710675761],[6.798543934710324,51.13526719389483],[6.798309995792806,51.13520118640736]]},"properties":{"fax":"+49 2133 70940","name":"Stadt Dormagen","email":"info@hotel-stadt-dormagen.de","phone":"+49 2133 7828","source":"Bing","tourism":"hotel","website":"http://www.hotel-stadt-dormagen.de","building":"yes","operator":"Boris Diebig","addr:city":"Dormagen","addr:street":"Robert-Bosch-Straße","addr:country":"DE","addr:postcode":"41541","addr:housenumber":"2"}},
{"type":"Feature","geometry":{"type":"LineString","coordinates":[[6.713093197904527,51.19309608126059],[6.7128321854397655,51.193118293303996],[6.7127835704013705,51.192894412670285],[6.712397164665163,51.19292731164023],[6.712382915429771,51.19286159751937],[6.712346789427102,51.19286427972838],[6.7123294388875365,51.192857490386814],[6.712326337583363,51.1928444984369],[6.712339664809406,51.192834188696],[6.712376293726265,51.19283108739182],[6.712356931529939,51.19274161057547],[6.712340167723596,51.19266449706629],[6.712505626492202,51.19265041546896],[6.71253093983978,51.19276730110869],[6.712753479368985,51.192748316098005],[6.712723388336599,51.19260921841487],[6.712819109670818,51.19256131583825],[6.712982808239758,51.1925870901905],[6.713012480176985,51.19272409239784],[6.713108285330236,51.1927157943137],[6.713044582866132,51.1928719910793],[6.713093197904527,51.19309608126059]]},"properties":{"fax":"+49-2131-184184","name":"Holiday Inn Düsseldorf - Neuss","phone":"+49-2131-1840","source":"yahoo_wms","tourism":"hotel","website":"www.hi-neuss.de","building":"yes","addr:city":"Neuss","wheelchair":"yes","addr:street":"Anton-Kux-Straße","addr:country":"DE","addr:postcode":"41460","addr:housenumber":"1"}},
{"type":"Feature","geometry":{"type":"LineString","coordinates":[[6.90107321832329,51.22687821043655],[6.901057041250169,51.226716607343405],[6.900897533632815,51.22671970864758],[6.900887223891914,51.226526002865285],[6.900484138168395,51.22650379082188],[6.900465697981417,51.22665852075443],[6.900684633292258,51.22666878858581],[6.900690165348351,51.226731694769114],[6.900631575845182,51.226733413059264],[6.900642807595432,51.22689359122887],[6.90107321832329,51.22687821043655]]},"properties":{"name":"Arcadia","tourism":"hotel","building":"yes"}},
{"type":"Feature","geometry":{"type":"LineString","coordinates":[[6.776281096972525,51.23997849645093],[6.77618411835283,51.24005661578849],[6.776301716454327,51.2401103018783],[6.776336501352489,51.2401295802556],[6.776364664547145,51.24010858358815],[6.776382098905742,51.24011528911069],[6.776486705057323,51.24002551892772],[6.7764582904055715,51.24001868767664],[6.776281096972525,51.23997849645093]]},"properties":{"fax":"+49 211 49220 22","name":"Hotel Cascade","email":"info@hotel-cascade.de","phone":"+49 211 49220 0","source":"Bing Sat","smoking":"no","tourism":"hotel","website":"http://www.hotel-cascade.de","building":"yes","addr:city":"Düsseldorf","addr:street":"Kaiserswerther Straße","addr:country":"DE","addr:postcode":"40477","internet_access":"wlan","addr:housenumber":"59","internet_access:fee":"no"}},
{"type":"Feature","geometry":{"type":"LineString","coordinates":[[6.7480853805318475,51.23108081286773],[6.748284031637013,51.231017319951206],[6.748192165978253,51.23090479290113],[6.748092086054385,51.230936811771244],[6.747993598692119,51.23096828581765],[6.7480853805318475,51.23108081286773]]},"properties":{"name":"Hotel Arosa","phone":"+49 211 57732 0","stars":"3","source":"Bing Sat","tourism":"hotel","website":"http://www.arosa-duesseldorf.de","building":"yes","addr:city":"Düsseldorf","addr:street":"Sonderburgstraße","addr:country":"DE","addr:postcode":"40545","bett+bike:ref":"NRW-1430","addr:housenumber":"48"}},
{"type":"Feature","geometry":{"type":"LineString","coordinates":[[6.74629861023277,51.23113659443334],[6.746387290768325,51.231178294401616],[6.7466048849746585,51.230996784288436],[6.74654973205179,51.230970884207636],[6.74649307038635,51.23094431357458],[6.746391816996038,51.23102871933952],[6.746438085101545,51.231050512287766],[6.746364994905889,51.23111140681431],[6.746341860853136,51.231100510340184],[6.74629861023277,51.23113659443334]]},"properties":{"name":"Hotel Hanseat","phone":"+49 211 550272 0","stars":"3","source":"Bing Sat","tourism":"hotel","website":"http://www.hotel-hanseat.de","building":"yes","addr:city":"Düsseldorf","wheelchair":"no","addr:street":"Belsenstraße","addr:country":"DE","addr:postcode":"40545","internet_access":"wlan","addr:housenumber":"6","internet_access:fee":"yes"}},
{"type":"Feature","geometry":{"type":"LineString","coordinates":[[6.719610295258462,51.22845350531861],[6.719610295258462,51.22836339985952],[6.719746082089841,51.22836339985952],[6.719746082089841,51.228453589137644],[6.719610295258462,51.22845350531861]]},"properties":{"name":"Hotel Alt-Heerdt garni","phone":"+49 211 5637370","source":"local_knowledge","tourism":"hotel","website":"http://www.hotel-heerdt.de/","building":"yes","addr:city":"Düsseldorf","addr:street":"Alt-Heerdt","addr:country":"DE","addr:postcode":"40549","addr:housenumber":"96"}},
{"type":"Feature","geometry":{"type":"LineString","coordinates":[[6.985641508363187,51.12266881624237],[6.985426009632647,51.122503315564245],[6.985370186157525,51.12246040022001],[6.98542466852814,51.122432404663414],[6.985372616909444,51.12239238107577],[6.985473032109439,51.122340916190296],[6.985796405933797,51.12258939770982],[6.985641508363187,51.12266881624237]]},"properties":{"name":"Lohmann's Kapeller Hof","tourism":"hotel","website":"http://www.kapeller-hof.de/","building":"yes","addr:city":"Langenfeld","addr:street":"Kapeller Weg","addr:country":"DE","addr:postcode":"40764","addr:housenumber":"1"}},
{"type":"Feature","geometry":{"type":"LineString","coordinates":[[6.807475606910884,51.27849711338058],[6.807458088733256,51.27854489022866],[6.80673657450825,51.27845759270713],[6.806902284733951,51.27794650616124],[6.807628492824733,51.2780314986594],[6.8075527204200625,51.27825378673151],[6.807544589973986,51.278275998774916],[6.807356332428753,51.27825328381732],[6.807288522832096,51.27847490133718],[6.807475606910884,51.27849711338058]]},"properties":{"fax":"+4921120063200","name":"Airporthotel Düsseldorf","email":"info@duesseldorf.valk.com","phone":"+49211200630","stars":"4","source":"local_knowledge","tourism":"hotel","website":"http://www.airporthotelduesseldorf.com","building":"yes","operator":"Van Der Valk Exclusief","addr:city":"Düsseldorf","addr:street":"Am Hülserhof","addr:country":"DE","addr:postcode":"40472","addr:housenumber":"57"}},
{"type":"Feature","geometry":{"type":"LineString","coordinates":[[6.993873375467956,51.125216118525714],[6.9938505766913295,51.1252012825571],[6.993871531449258,51.12518011825159],[6.993880583904684,51.12516331253573],[6.993884271942079,51.125148811843246],[6.993884104304016,51.12513221567497],[6.99387991335243,51.12511700252071],[6.9938706094399095,51.12510069971904],[6.993859293870628,51.12508808495477],[6.993843619711697,51.125075679738075],[6.993827861733735,51.1250665015541],[6.993808667175472,51.125058287288994],[6.993789724074304,51.12505241995677],[6.9937645783647895,51.12504760036245],[6.993737001903355,51.12504550488666],[6.993708587251604,51.12504659453407],[6.993686039932072,51.125049989204854],[6.993657625280321,51.12505770055577],[6.993635916151106,51.125067088287324],[6.993619571439922,51.125076895114034],[6.993601801805198,51.12509189872071],[6.9935930846259,51.12510250182822],[6.993583361618221,51.12512148683891],[6.993580176495016,51.125140513759106],[6.993582607246935,51.12515799002722],[6.993589564226568,51.12517399946228],[6.993602975271642,51.125191308092326],[6.993616386316717,51.12520291702822],[6.993634658865631,51.12521431641653],[6.9936603074893355,51.125225212890655],[6.993692074902356,51.125233217608184],[6.993721411563456,51.12523631891236],[6.9937359960749745,51.12523648655042],[6.993757034651935,51.12523531308398],[6.993778659962118,51.125232086051255],[6.993803470395505,51.1252255900763],[6.99382911901921,51.12524641910568],[6.993854600004852,51.12527420511469],[6.9934709602966905,51.12533220788464],[6.99360238853842,51.12572029000148],[6.9939188892021775,51.12568320007995],[6.993853175081313,51.125483710784465],[6.9940060609951615,51.12539788009599],[6.994059621356428,51.12542780349031],[6.994303786195815,51.12527919234708],[6.994232791475952,51.125215196516365],[6.99433873873204,51.12514290260151],[6.994219380430877,51.125069602858275],[6.994167077355087,51.125101579818875],[6.994098681025207,51.12506289733574],[6.993998098187149,51.12512178020552],[6.994057106785476,51.12516050459817],[6.993888127617538,51.12525530392304],[6.993873375467956,51.125216118525714]]},"properties":{"name":"Romantikhotel Gravenberg","tourism":"hotel","website":"http://www.gravenberg.de/","building":"yes","addr:city":"Langenfeld","addr:street":"Elberfelder Straße","addr:country":"DE","addr:postcode":"40764","addr:housenumber":"45"}},
{"type":"Feature","geometry":{"type":"LineString","coordinates":[[6.943271909840405,51.15799929248169],[6.943117599003017,51.15788479568437],[6.942971418611705,51.15796228637919],[6.942909979261458,51.157994808163494],[6.942945015616715,51.158020792063326],[6.9430497055873275,51.158098492305726],[6.943064206279814,51.15810930496082],[6.943271909840405,51.15799929248169]]},"properties":{"name":"Hotel garni Wiedenhof","source":"survey","tourism":"hotel","website":"http://www.hotel-wiedenhof.de/","building":"yes","addr:street":"Kölner Straße","addr:housenumber":"38"}},
{"type":"Feature","geometry":{"type":"LineString","coordinates":[[6.645585182122886,51.266835203859955],[6.645593480207026,51.26692690188065],[6.6456172009930015,51.2669259798713],[6.645619631744921,51.26695259241387],[6.645668162964284,51.26695091603324],[6.645677969790995,51.267058288212866],[6.645829095505178,51.26705288188532],[6.645829766057432,51.267060216050595],[6.6458828235045075,51.267058288212866],[6.645886762998998,51.267101790290326],[6.645964379422367,51.26709898235276],[6.645939233712852,51.26682250527665],[6.6456855135038495,51.26683159964159],[6.645585182122886,51.266835203859955]]},"properties":{"name":"Der Grieche","phone":"+49 2159 2241","amenity":"restaurant","cuisine":"greek","tourism":"hotel","website":"http://www.haus-bovert.de/","building":"yes","operator":"Dimitrios Doios","addr:city":"Meerbusch","addr:street":"Meerbuscher Straße","addr:country":"DE","addr:postcode":"40670","addr:housename":"Haus Bovert","addr:housenumber":"249"}},
{"type":"Feature","geometry":{"type":"LineString","coordinates":[[7.005102527327836,51.1685627955012],[7.005310314707458,51.168567112181336],[7.005321127362549,51.16831808583811],[7.005406622774899,51.16833241889253],[7.005464625544846,51.16816339781508],[7.005221801809967,51.16812391905114],[7.005164218135178,51.1682659923099],[7.005094396881759,51.168270979542285],[7.005102527327836,51.1685627955012]]},"properties":{"name":"Kempe Komfort plus","email":"solingen@kempe-komfort-hotel.de","phone":"+49 212 23530","tourism":"hotel","building":"yes","addr:city":"Solingen","addr:street":"Caspersbroicher Weg","addr:country":"DE","addr:postcode":"42697","internet_access":"wlan","addr:housenumber":"3","internet_access:fee":"no"}},
{"type":"Feature","geometry":{"type":"LineString","coordinates":[[6.767790480516851,51.27644409192726],[6.7684450233355165,51.27628940390423],[6.769756707362831,51.27597948303446],[6.76940827164799,51.27587181748822],[6.769307437352836,51.27589398762211],[6.769146001897752,51.27584390575066],[6.76901591476053,51.275803504977375],[6.769112725742161,51.27577840117738],[6.768759177066386,51.275674297939986],[6.76863529253751,51.275700114201754],[6.768402527086437,51.27563138259575],[6.768446364440024,51.27561960602179],[6.767069972120225,51.27518919529393],[6.767461490817368,51.27584239700809],[6.767502310685813,51.27583468565717],[6.767571629025042,51.27594951773062],[6.76752267871052,51.27595970174298],[6.767615131102502,51.27612809417769],[6.767650502733886,51.276121304836124],[6.767692915163934,51.27619741251692],[6.767731974832714,51.27626761095598],[6.767695262096822,51.276275280397385],[6.767790480516851,51.27644409192726]]},"properties":{"name":"Hotel Maritim","phone":"0211 52090","tourism":"hotel","website":"http://www.maritim.de/de/hotels/deutschland/hotel-duesseldorf","building":"yes","addr:city":"Düsseldorf","wheelchair":"yes","addr:street":"Maritim-Platz","addr:country":"DE","addr:postcode":"40474","addr:housenumber":"1","wheelchair:description":"6 barrierefreie Zimmer"}},
{"type":"Feature","geometry":{"type":"LineString","coordinates":[[6.985351159237325,51.167870115023106],[6.985349734313786,51.16777879418805],[6.985160973854363,51.16778101539239],[6.985135660506785,51.16779518080875],[6.985138677991927,51.16790720494464],[6.9851396000012755,51.16794018773362],[6.985141611658037,51.16793989436701],[6.985290222801268,51.167938217986375],[6.985304304398596,51.167938008438796],[6.985303466208279,51.167902301531285],[6.985355434007943,51.16789940977469],[6.985351326875389,51.16787501843646],[6.985351159237325,51.167870115023106]]},"properties":{"name":"Hotel Hölterhoff","tourism":"hotel","building":"yes","addr:city":"Solingen","addr:street":"Hildener Straße","addr:postcode":"42697","addr:housenumber":"89"}},
{"type":"Feature","geometry":{"type":"LineString","coordinates":[[6.7236350337043405,51.20103940134868],[6.723591112531722,51.20103630004451],[6.723580467514694,51.201096607837826],[6.723624388687313,51.20109958341345],[6.723618688993156,51.20113218901679],[6.723992605693638,51.20115800527856],[6.724007441662252,51.20107389288023],[6.724169715307653,51.201085082720965],[6.724219587631524,51.201088519301265],[6.724233333952725,51.20101019041613],[6.724247080273926,51.200931903440505],[6.724199973978102,51.2009287183173],[6.723825805820525,51.20090290205553],[6.723811221309006,51.20098571525887],[6.723646433092654,51.200974399689585],[6.7236350337043405,51.20103940134868]]},"properties":{"fax":"+49 2131 77-1356","name":"Swissôtel Düsseldorf / Neuss","email":"emailus@swissotel-duesseldorf.de","layer":"1","phone":"+49 2131 77-00","rooms":"246","stars":"4","tourism":"hotel","website":"http://www.swissotel-duesseldorf.de/","building":"yes","addr:city":"Neuss","wheelchair":"yes","addr:street":"Rheinallee","addr:postcode":"41460","internet_access":"wlan","addr:housenumber":"1","internet_access:fee":"yes"}},
{"type":"Feature","geometry":{"type":"LineString","coordinates":[[6.810516477562487,51.186699389945716],[6.810404998250306,51.18658330058679],[6.810563667677343,51.18652341188863],[6.810644301585853,51.186607314739376],[6.810675314627588,51.186639501247555],[6.810516477562487,51.186699389945716]]},"properties":{"fax":"+49211752159","name":"Pension Melcher","email":"f-melcher@t-online.de","phone":"+49211753235","tourism":"hotel","website":"http://www.pension-melcher.de","building":"yes","operator":"Franz Melcher","addr:city":"Düsseldorf","roof:angle":"45","addr:street":"Dechenweg","roof:levels":"1","addr:country":"DE","addr:postcode":"40591","roof:material":"roof_tiles","building:levels":"1","internet_access":"wlan","addr:housenumber":"67","building:material":"brick","internet_access:fee":"no"}},
{"type":"Feature","geometry":{"type":"LineString","coordinates":[[6.8504578387364745,51.123200103174895],[6.8504905281588435,51.123129695188254],[6.850517517887056,51.12307227915153],[6.8504554918035865,51.12306100549176],[6.850403775461018,51.123051282484084],[6.850411822088063,51.12303359666839],[6.8504378059878945,51.1229789047502],[6.850704099051654,51.123028399888426],[6.850689095444977,51.123060293029994],[6.850754306651652,51.1230721953325],[6.850775764323771,51.12309138989076],[6.850751708261669,51.12314260331914],[6.850745673291385,51.123141513671726],[6.85069705825299,51.12324448535219],[6.8504578387364745,51.123200103174895]]},"properties":{"fax":"+49 2133 503-290","name":"Hotel Schloss Friedestrom","email":"info@friedestrom.de","phone":"+49 2133 503-0","rooms":"44","stars":"4","tourism":"hotel","website":"http://www.friedestrom.de/","building":"yes","operator":"Familie Allard","addr:city":"Dormagen","addr:street":"Parkstraße","addr:country":"DE","addr:postcode":"41541","internet_access":"wlan","addr:housenumber":"2"}},
{"type":"Feature","geometry":{"type":"LineString","coordinates":[[6.9197956239804626,51.298598006833345],[6.9199393736198545,51.29861229797825],[6.9199682073667645,51.29849981283769],[6.9198121363297105,51.29848229466006],[6.919804341159761,51.298528898041695],[6.9197956239804626,51.298598006833345]]},"properties":{"name":"Essgold","amenity":"restaurant","cuisine":"mediterranean","tourism":"hotel","website":"http://www.restaurant-essgold.de/","building":"house","addr:city":"Ratingen","addr:street":"Dorfstraße","addr:country":"DE","addr:postcode":"40882","addr:housenumber":"33"}},
{"type":"Feature","geometry":{"type":"LineString","coordinates":[[6.695929323323071,51.2454647035338],[6.696020434610546,51.245384404901415],[6.696047340519726,51.24539840267971],[6.696078940294683,51.2453901884146],[6.6961309080943465,51.24534429749474],[6.696090088225901,51.245324516203254],[6.696112384088337,51.245305908378214],[6.695916331373155,51.24521810794249],[6.695909625850618,51.24522380763665],[6.695786160416901,51.24532858142629],[6.695866961963475,51.24534781789407],[6.69576948042959,51.24542459612712],[6.695929323323071,51.2454647035338]]},"properties":{"fax":"+49 2132 760196","name":"Haus Büderich","email":"info@haus-buederich.de","phone":"+49 2132 72592","rooms":"15","sport":"9pin","amenity":"restaurant","tourism":"hotel","website":"http://www.haus-buederich.de/","building":"yes","operator":"Familie Šimić","addr:city":"Meerbusch","biergarten":"yes","wheelchair":"limited","addr:street":"Düsseldorfer Straße","addr:country":"DE","addr:postcode":"40667","internet_access":"wlan","addr:housenumber":"71"}},
{"type":"Feature","geometry":{"type":"LineString","coordinates":[[6.783439074642956,51.35316750733182],[6.783535634167492,51.353087711613625],[6.783578717149794,51.353111097123474],[6.78358584176749,51.35310468496755],[6.783608892001212,51.35311629390344],[6.783621632494032,51.35310807963833],[6.783644766546786,51.35311688063666],[6.783657590858638,51.35310778627172],[6.7837020149454474,51.353112815413624],[6.783732776530087,51.353155605029315],[6.783621464855969,51.353251619730145],[6.783439074642956,51.35316750733182]]},"properties":{"name":"Haus Will","phone":"+49203 761020","tourism":"hotel","website":"www.hotel-restaurant-haus-will.de","building":"yes","addr:city":"Duisburg","addr:street":"Angermunder Straße","addr:postcode":"47269","addr:housenumber":"174"}},
{"type":"Feature","geometry":{"type":"LineString","coordinates":[[6.722403899766505,51.29876388469711],[6.722492077387869,51.29874209174886],[6.722504063509405,51.298716694582254],[6.722550415433943,51.298727088142186],[6.72261671628803,51.29871049197391],[6.7227182211354375,51.29887528019026],[6.722784019075334,51.298873897176236],[6.722821570001543,51.29891748307273],[6.722804387100041,51.29895671037957],[6.722772284410894,51.29898068262264],[6.722729201428592,51.29898898070678],[6.722701038233936,51.29898608895019],[6.722675138153136,51.29898118553683],[6.722715119831264,51.29904878558591],[6.7225214978680015,51.29909928655252],[6.722492496483028,51.299061484169215],[6.722351680509746,51.299096897710115],[6.722333407960832,51.29910222021863],[6.7224572924897075,51.29930548137054],[6.7222096072509885,51.29936679499224],[6.722123441286385,51.2992305890657],[6.722085806541145,51.29923989297822],[6.722075580619276,51.299224679823965],[6.721864859573543,51.299279120285064],[6.721800570376217,51.29917568759993],[6.721882126294076,51.29915309837088],[6.721870307810605,51.299133107531816],[6.721964436583221,51.299106620717794],[6.721950271166861,51.29908461822197],[6.721981619484723,51.29907669732347],[6.721868799068034,51.29890281474218],[6.722117993049324,51.298840411473066],[6.722201812081039,51.298969911877066],[6.722262664698064,51.298955201637],[6.722413371317089,51.29891798598692],[6.72235771548003,51.29883219720796],[6.7224360862746835,51.29881409229711],[6.722403899766505,51.29876388469711]]},"properties":{"name":"Rheinhotel Vier Jahreszeiten","email":"info@rheinhotel-meerbusch.de","layer":"1","tourism":"hotel","website":"http://www.rheinhotel-meerbusch.de/","building":"yes","addr:city":"Meerbusch","addr:street":"Zur Rheinfähre","addr:country":"DE","addr:postcode":"40668","addr:housenumber":"15"}},
{"type":"Feature","geometry":{"type":"LineString","coordinates":[[6.918731792829931,51.174406993668526],[6.9182141264900565,51.17431651102379],[6.918315882794559,51.17407691432163],[6.918185711838305,51.17405570810661],[6.918224771507084,51.17395851993933],[6.918127625249326,51.17394142085686],[6.918152016587555,51.17388551356271],[6.918174480088055,51.173880610149354],[6.91825486253947,51.17389548802748],[6.918293419294059,51.17380500538275],[6.91822653170675,51.173793480265886],[6.918256119824946,51.173725586850196],[6.918454938568175,51.173760413657874],[6.918972101993859,51.17385098012164],[6.918731792829931,51.174406993668526]]},"properties":{"name":"Hotel - Restaurant Rolih","source":"survey","amenity":"restaurant","tourism":"hotel","website":"http://www.rolih.de/seiten/hotel.html","building":"yes","addr:city":"Hilden","wheelchair":"no","addr:street":"Hans-Sachs-Straße","addr:country":"DE","addr:postcode":"40721","addr:housenumber":"18"}},
{"type":"Feature","geometry":{"type":"LineString","coordinates":[[6.786407022736967,51.27545439871028],[6.786414734087884,51.275462906342],[6.786431916989386,51.27548201708123],[6.786624030210078,51.275414500851184],[6.786598297767341,51.27538591856137],[6.786714303307235,51.275345098692924],[6.7866155644878745,51.275235211942345],[6.7864653607830405,51.275288017932326],[6.786307361908257,51.27534358995035],[6.786407022736967,51.27545439871028]]},"properties":{"name":"AVIDON Design Hotel","phone":"+49 211 95195-0","source":"Bing Sat","tourism":"hotel","website":"http://www.avidon.de/a/","building":"yes","addr:city":"Düsseldorf","addr:street":"Unterrather Straße","addr:country":"DE","addr:postcode":"40468","internet_access":"wlan","addr:housenumber":"42","internet_access:fee":"no"}},
{"type":"Feature","geometry":{"type":"LineString","coordinates":[[6.922824759967625,51.165694885421544],[6.9227371690794826,51.165826607029885],[6.9228912284597754,51.16586600197479],[6.92297990899533,51.165729586500674],[6.92302533891052,51.165661190170795],[6.923184092156589,51.16551748244092],[6.923007317818701,51.16547050187364],[6.922962977550924,51.16553839528933],[6.923007317818701,51.165552309248596],[6.922899191267788,51.16571508580819],[6.922824759967625,51.165694885421544]]},"properties":{"name":"City Hotel","source":"survey","tourism":"hotel","website":"http://www.city-hotel-hilden.de/","building":"yes","addr:city":"Hilden","addr:street":"Düsseldorfer Straße","addr:housenumber":"9"}},
{"type":"Feature","geometry":{"type":"LineString","coordinates":[[6.6841520788148046,51.24311450170353],[6.684349640272558,51.24304451281205],[6.684293732978404,51.24298278009519],[6.684397668577731,51.242945899721235],[6.684392387978733,51.2429399904795],[6.684428513981402,51.24292720807716],[6.684349807910621,51.242840287741274],[6.684222067706287,51.242885591927916],[6.684176134876907,51.242834713775665],[6.684020231477916,51.24289011815563],[6.684104637242854,51.24298319919035],[6.684050573967397,51.24300239374861],[6.6841520788148046,51.24311450170353]]},"properties":{"name":"Hotel Café Schwarz","phone":"+49 2132 72932","amenity":"cafe","tourism":"hotel","building":"yes","addr:city":"Meerbusch","addr:street":"Niederdonker Straße","addr:country":"DE","addr:postcode":"40667","addr:housenumber":"74"}},
{"type":"Feature","geometry":{"type":"LineString","coordinates":[[6.682508890517056,51.241652697790414],[6.68256722856313,51.24164171749726],[6.682589272968471,51.241687608417124],[6.682651801966131,51.24167578993365],[6.682685916312039,51.24174661701545],[6.682748864404857,51.24173471471295],[6.6827626107260585,51.24176321318373],[6.682802592404187,51.241755585651845],[6.68279689271003,51.24174368334934],[6.682822541333735,51.24173890566453],[6.68281985912472,51.24173349933699],[6.682865540497005,51.24172490788624],[6.682858667336404,51.24171099392697],[6.6830912651494145,51.24166619265452],[6.683034603483975,51.24155270168558],[6.6830206057056785,51.24152160482481],[6.682830839417875,51.241557395551354],[6.6827596770599484,51.24140698229894],[6.68317852076143,51.24137898674235],[6.6831610864028335,51.24128561234102],[6.6824948927387595,51.241333892103285],[6.682465723715723,51.24133938224986],[6.6824295138940215,51.24126411275938],[6.682346616871655,51.24127978691831],[6.6823840001598,51.24135740334168],[6.682368074543774,51.24136042082682],[6.682508890517056,51.241652697790414]]},"properties":{"fax":"+49-2132-9775","name":"Gut Dyckhof","email":"info@gutdyckhof.de","phone":"+49-2132-9777","source":"Bing","amenity":"restaurant","tourism":"hotel","website":"http://gutdyckhof.de/","building":"yes","operator":"Gut Dyckhof Gastronomie GmbH & Co. KG","addr:city":"Meerbusch","addr:street":"Am Dyckhof","addr:country":"DE","addr:postcode":"40667","addr:housename":"Gut Dyckhof","internet_access":"wlan","addr:housenumber":"3"}},
{"type":"Feature","geometry":{"type":"LineString","coordinates":[[6.683820826001465,51.202888910192996],[6.683953092433512,51.20281158713624],[6.6838979395106435,51.202774497214705],[6.683760727755725,51.20268229627982],[6.6836920799687505,51.202636195812374],[6.68365050572902,51.20266050333157],[6.683559813536704,51.20271351886913],[6.683820826001465,51.202888910192996]]},"properties":{"name":"Proventhotel Mirage","source":"Bing","tourism":"hotel","building":"yes","addr:city":"Neuss","roof:shape":"flat","wheelchair":"no","addr:street":"Krefelder Straße","addr:country":"DE","addr:postcode":"41460","building:levels":"7","addr:housenumber":"1"}},
{"type":"Feature","geometry":{"type":"LineString","coordinates":[[6.687269140966237,51.18991929804906],[6.687307781539857,51.18989440379664],[6.687327981926501,51.18989679263905],[6.687347176484764,51.189888410735875],[6.687352037988603,51.189878813456744],[6.687343404628336,51.1898697190918],[6.687405933625996,51.189829318318516],[6.687405933625996,51.18981008185074],[6.687297974713147,51.18974348763004],[6.687144837342203,51.189843399915844],[6.687269140966237,51.18991929804906]]},"properties":{"name":"Lindenhof","fixme":"contact, etc.","source":"Bing","amenity":"restaurant","tourism":"hotel","building":"yes","addr:city":"Neuss","wheelchair":"no","addr:street":"Jülicher Straße","addr:country":"DE","addr:postcode":"41464","addr:housenumber":"56"}},
{"type":"Feature","geometry":{"type":"LineString","coordinates":[[6.738226586021483,51.242281885351986],[6.738313506357372,51.242370104882866],[6.738514420576394,51.242573785129935],[6.738575859926641,51.24255019007251],[6.738584325648844,51.242558907251805],[6.7386823100969195,51.24252118868753],[6.738673928193748,51.242512681055814],[6.738732769154012,51.242490008007735],[6.7384437611326575,51.242195090744644],[6.738381232134998,51.24221918871626],[6.738374526612461,51.242212399374694],[6.738281068392098,51.242248315829784],[6.738290120847523,51.24225749401376],[6.738226586021483,51.242281885351986]]},"properties":{"fax":"+49 211 593569","name":"Courtyard Düsseldorf Seestern","phone":"+49 211 595959","rooms":"221","source":"Bing Sat","tourism":"hotel","website":"http://www.marriott.de/hotels/travel/duscy-courtyard-duesseldorf-seestern/","building":"yes","operator":"Marriott International, Inc.","addr:city":"Düsseldorf","wheelchair":"limited","addr:street":"Am Seestern","addr:country":"DE","addr:postcode":"40547","building:levels":"12","internet_access":"wlan","addr:housenumber":"16","internet_access:fee":"yes"}},
{"type":"Feature","geometry":{"type":"LineString","coordinates":[[6.8710100976750255,51.16375690558925],[6.8709935853257775,51.16380820283666],[6.871044798754156,51.163817297201604],[6.871123001910746,51.16373980650678],[6.870996099896729,51.16368498886004],[6.871077907271683,51.16358918370679],[6.871264991350472,51.16365452064201],[6.871208497323096,51.16377128055319],[6.871119900606573,51.163948515895754],[6.870927116833627,51.16391679039225],[6.870938097126782,51.163881418760866],[6.870724526233971,51.163844706024975],[6.870767190121114,51.16371780401096],[6.8710100976750255,51.16375690558925]]},"properties":{"fax":"0211-718870","name":"Schloß Hotel Benrath","phone":"0211-971520","source":"survey","tourism":"hotel","website":"http://www.schloss-hotel-benrath.de/","building":"yes","addr:city":"Düsseldorf","addr:street":"Erich-Müller-Straße","addr:country":"DE","addr:postcode":"40597","addr:housenumber":"2"}},
{"type":"Feature","geometry":{"type":"LineString","coordinates":[[6.860713097266853,51.155926783103496],[6.860741092823446,51.155840198043734],[6.8606728641316295,51.155831480864435],[6.860714186914265,51.15570508176461],[6.86087176669389,51.15572549169883],[6.860864809714258,51.155746991280466],[6.860930188558996,51.155755415093154],[6.860946784727275,51.15570428548381],[6.860935972072184,51.155702692922205],[6.8609544122591615,51.15564661798999],[6.86089179944247,51.15563840372488],[6.860932870768011,51.15551418391988],[6.861070669256151,51.15553228883073],[6.861046110279858,51.15560600766912],[6.861076536588371,51.15560998907313],[6.861082739196718,51.15566518390551],[6.861091791652143,51.15566618973389],[6.861088019795716,51.15569569403306],[6.861115931533277,51.155703405383974],[6.86111266259104,51.15575491217896],[6.861145771108568,51.15575558273122],[6.861143591813743,51.15579589968547],[6.861131521873176,51.15587188163772],[6.861074608750641,51.15586379310116],[6.86107259709388,51.15595171926543],[6.861065975390375,51.155968483071774],[6.860980396158993,51.15595708368346],[6.860977713949978,51.15596399875358],[6.860713097266853,51.155926783103496]]},"properties":{"name":"Hotel Restaurant Rheinterasse","phone":"+49-211-996990","amenity":"restaurant","tourism":"hotel","website":"http://www.rheinterrassebenrath.de/","building":"yes","addr:city":"Düsseldorf","wheelchair":"yes","addr:street":"Benrather Schloßufer","addr:country":"DE","addr:postcode":"40597","addr:housenumber":"39"}},
{"type":"Feature","geometry":{"type":"LineString","coordinates":[[6.790803330950439,51.221729207318276],[6.7907062685117126,51.221650291699916],[6.790717835538089,51.22163960477337],[6.7908323323354125,51.22157979989424],[6.7908547120168805,51.22156810713932],[6.790961497463286,51.22165397973731],[6.790939369238913,51.22166470857337],[6.790803330950439,51.221729207318276]]},"properties":{"name":"Bahn-Hotel","tourism":"hotel","website":"www.bahn-hotel.de","building":"yes","addr:city":"Düsseldorf","addr:street":"Karlstraße","addr:country":"DE","addr:postcode":"40210","building:levels":"6","addr:housenumber":"74"}},
{"type":"Feature","geometry":{"type":"LineString","coordinates":[[6.70578149612993,51.193082083482295],[6.705752997659147,51.19309268658981],[6.705824160017073,51.193168291356415],[6.705852490849793,51.19315781397745],[6.705919378437102,51.19322880869731],[6.706119370646775,51.19315458694473],[6.706045023165643,51.19307558750734],[6.705989032052457,51.19301599217579],[6.705911331810057,51.192936280276626],[6.705758781172335,51.19299340294674],[6.705714105628431,51.19301050202921],[6.70578149612993,51.193082083482295]]},"properties":{"fax":"+49 2131 130201","ref":"0579","name":"All Seasons Duesseldorf-Neuss","email":"h0579-re@accor.com","phone":"+49 2131 1040","rooms":"50","source":"Bing","tourism":"hotel","building":"yes","operator":"Jochen Haase GmbH","addr:city":"Neuss","addr:street":"Hellersbergstraße","addr:country":"DE","addr:postcode":"41460","internet_access":"wlan","addr:housenumber":"16","internet_access:fee":"no"}},
{"type":"Feature","geometry":{"type":"LineString","coordinates":[[6.801467123441398,51.13592689158395],[6.801468129269779,51.135925215203315],[6.801200578920543,51.1358620156534],[6.801205440424383,51.13585371756926],[6.801221198402345,51.13582710502669],[6.8012423207983375,51.13579190103337],[6.801245422102511,51.13578708143905],[6.801350531168282,51.135811891872436],[6.801378694362938,51.13576470175758],[6.801422364078462,51.13577488576993],[6.801545997150242,51.135804306250066],[6.801624787040055,51.13582320744172],[6.801608190871775,51.13585099345073],[6.801604167558253,51.1358501133509],[6.8015606654807925,51.135922993998975],[6.8015577318146825,51.13592219771817],[6.801543985493481,51.1359449964948],[6.801467123441398,51.13592689158395]]},"properties":{"fax":"+49 2133 2683913","name":"Rheinischer Hof","phone":"+49 2133 2683908","source":"Bing","tourism":"hotel","website":"http://www.rheinischer-hof-dormagen.de/","building":"yes","operator":"Bernhard Zimmer","addr:city":"Dormagen","addr:street":"Düsseldorfer Straße","addr:country":"DE","addr:postcode":"41541","addr:housenumber":"131"}},
{"type":"Feature","geometry":{"type":"LineString","coordinates":[[6.783619872294366,51.15442411741242],[6.783602018840611,51.15441208938137],[6.783437398262322,51.15430119680241],[6.783480565063655,51.15427588345483],[6.78342507686466,51.154238583985716],[6.783507890067995,51.15419030422345],[6.7835232289507985,51.15418129367754],[6.7837611911818385,51.154341597575694],[6.783681563101709,51.154388117138296],[6.783619872294366,51.15442411741242]]},"properties":{"fax":"+49-2131-33522","name":"Haus Stüttgen","phone":"+49-2131-39255","source":"Bing","amenity":"restaurant","cuisine":"regional","tourism":"hotel","website":"http://www.haus-stuettgen.de/","operator":"Hans-Peter Roßlenbroich","addr:city":"Neuss","addr:street":"Koblenzer Straße","addr:country":"DE","addr:postcode":"41468","opening_hours":"Su-Fr 11:00-14:30,17:00+; Sa off","addr:housenumber":"63"}},
{"type":"Feature","geometry":{"type":"LineString","coordinates":[[6.772025772370398,51.19902950478718],[6.772128366865218,51.19911860441789],[6.772590293549001,51.19890180649236],[6.772545031271875,51.198838397394866],[6.7725707637146115,51.198828087653965],[6.772544612176716,51.19879879290238],[6.7725643096491694,51.19879229692742],[6.77241628523916,51.198614600580186],[6.7722627287730575,51.19866329943761],[6.772419470362365,51.19884128915146],[6.772025772370398,51.19902950478718]]},"properties":{"addr:city":"Düsseldorf","addr:country":"DE","addr:housenumber":"36","addr:postcode":"40223","addr:street":"Ubierstraße","building":"yes","email":"info@hotelastra.de","fax":"+4921195775103","internet_access":"wlan","internet_access:fee":"no","name":"Hotel Astra","operator":"Hotelbetrieb Jebli e.K., Ubierstraße 36, 40223 Düsseldorf","phone":"+49211957750","source:outline":"NRW-Kataster","stars":"3","tourism":"hotel","website":"http://www.hotelastra.de"}},
{"type":"Feature","geometry":{"type":"LineString","coordinates":[[6.6491660149767995,51.17093139560893],[6.649033413268626,51.17105758516118],[6.6493798373267055,51.17120070615783],[6.649338933639228,51.171242783311754],[6.649486036039889,51.171304096933454],[6.6495255986228585,51.17126700701192],[6.649588379077613,51.17129370337352],[6.649832711555064,51.17106181802228],[6.649851067923009,51.171044383663684],[6.649760878644884,51.17100628791377],[6.649656188674271,51.17096307920292],[6.649678233079612,51.17094220826402],[6.649621990509331,51.17091899039224],[6.64960237685591,51.17093759821728],[6.649572621099651,51.17092531872913],[6.649545966647565,51.170950590167195],[6.649453514255583,51.17095318855718],[6.6494028037413955,51.17095461348072],[6.649388889782131,51.17102338699624],[6.6491660149767995,51.17093139560893]]},"properties":{"fax":"+49 2131 7525-500","name":"Hotel Fire & Ice","email":"hotel@allrounder.de","phone":"+49 2131 7525-0","rooms":"79","stars":"4","tourism":"hotel","website":"http://www.hotelfireandice.de/","building":"yes","operator":"allrounder mountain resort GmbH & Co. KG","addr:city":"Neuss","addr:street":"An der Skihalle","addr:country":"DE","addr:postcode":"41472","internet_access":"wlan","addr:housenumber":"1","internet_access:fee":"no"}},
{"type":"Feature","geometry":{"type":"LineString","coordinates":[[6.842403416521847,51.29425442079082],[6.842397800646722,51.29425270250067],[6.842330829240382,51.29433518042788],[6.8423076113685966,51.29432788817212],[6.842292691580951,51.29434628644958],[6.842223205603659,51.29432411631569],[6.842238041572273,51.29430580185726],[6.842185319401324,51.294288996141404],[6.842232174240053,51.294231202919036],[6.8422387121245265,51.2942332145758],[6.842284225858748,51.294177181553096],[6.842278693802655,51.29417550517246],[6.8423665361478925,51.294067420531064],[6.842335690744221,51.294057487975806],[6.842343485914171,51.294047890696675],[6.842303839512169,51.29403531784192],[6.842271066270769,51.294024714734405],[6.8423264706507325,51.29395669559017],[6.842364273034036,51.29396880744025],[6.84239620808512,51.293978991452605],[6.842398303560913,51.29397630924359],[6.842437363229692,51.293988798279315],[6.842484804801643,51.29393058596179],[6.842510285787284,51.293938716407865],[6.8425198411569,51.293926981743425],[6.842598714865744,51.29395221127197],[6.842589327134192,51.293963904026896],[6.842624363489449,51.29397509386763],[6.842579101212323,51.29403091734275],[6.842582789249718,51.294032090809196],[6.842514728195965,51.29411599365994],[6.842510788701475,51.29411490401253],[6.842474830336869,51.29415920237079],[6.842479524202645,51.29416071111336],[6.842403416521847,51.29425442079082]]},"properties":{"fax":"+49 (0)2102 - 100 288","name":"Breitbach","email":"info@city-hotel-ratingen.de","phone":"+49 (0)2102 - 100 20","tourism":"hotel","website":"http://www.city-hotel-ratingen.de/","building":"yes","addr:city":"Ratingen","addr:street":"Stadionring","addr:country":"DE","addr:postcode":"40878","internet_access":"wlan","addr:housenumber":"1","internet_access:fee":"no","building:use:residential":"yes","building:use:accommodation":"yes"}},
{"type":"Feature","geometry":{"type":"LineString","coordinates":[[6.744159464724362,51.29939852049574],[6.744306399486959,51.29938531899825],[6.744380411691964,51.2997063039802],[6.74423607531935,51.29971929593012],[6.744254599325359,51.29979972029105],[6.744265831075609,51.29979871446267],[6.744296341203153,51.29993081325665],[6.744338418357074,51.29992699949071],[6.744357026182115,51.30000771721825],[6.7445533303543925,51.29998998949304],[6.7445068107917905,51.2997884885408],[6.744597083888948,51.29978040000424],[6.7445751233026385,51.299684720579535],[6.74458593595773,51.299683714751154],[6.744573866017163,51.299631998408586],[6.744762039743364,51.29961498314515],[6.744720381684601,51.299434520769864],[6.74461183603853,51.29944428568706],[6.744608231820166,51.29942877916619],[6.74457763787359,51.29941461374983],[6.744541176594794,51.29941851133481],[6.744521562941372,51.2994377897121],[6.744524831883609,51.299451619852334],[6.744456519372761,51.299457780551165],[6.744445790536702,51.29941159626469],[6.744467164389789,51.29940971033648],[6.7444390850141644,51.29928808892146],[6.744140186347067,51.29931499483064],[6.744159464724362,51.29939852049574]]},"properties":{"name":"Hotel MutterHaus","email":"info@hotel-mutterhaus.de","phone":"+49 211 617270","tourism":"hotel","website":"http://www.hotel-mutterhaus.de","building":"yes","addr:city":"Düsseldorf","wheelchair":"yes","addr:street":"Geschwister-Aufricht-Straße","addr:country":"DE","addr:postcode":"40489","addr:housenumber":"1"}},
{"type":"Feature","geometry":{"type":"LineString","coordinates":[[6.8852890050038695,51.16555218352005],[6.885441220365465,51.165419581811875],[6.885535013861954,51.16533781634644],[6.885682702995837,51.165404494386166],[6.885436694137752,51.165618903469294],[6.8852890050038695,51.16555218352005]]},"properties":{"name":"Waldesruh","source":"survey","amenity":"restaurant","tourism":"hotel","website":"http://www.hotel-waldesruh-benrath.de/","building":"yes","addr:city":"Düsseldorf","addr:street":"Am Wald","addr:country":"DE","addr:postcode":"40597","addr:housenumber":"6"}},
{"type":"Feature","geometry":{"type":"LineString","coordinates":[[6.903541102074087,51.17175940191373],[6.903316467069089,51.17172331782058],[6.903311521746218,51.17173450766131],[6.9032908184453845,51.17178039858118],[6.90331160556525,51.17178429616615],[6.903283693827689,51.17185839219019],[6.903462312184274,51.17195218568668],[6.903538419865072,51.17176598170772],[6.903541102074087,51.17175940191373]]},"properties":{"name":"Haus Fabry","source":"survey","tourism":"hotel","website":"http://www.haus-fabry.de/","building":"yes","addr:city":"Hilden","addr:street":"Hülsenstraße","addr:country":"DE","addr:postcode":"40721","addr:housenumber":"90"}},
{"type":"Feature","geometry":{"type":"LineString","coordinates":[[6.9012758089229465,51.170633418951184],[6.901004989631474,51.1706257914193],[6.9009960209950805,51.17075131041929],[6.901616281829774,51.170768786687404],[6.9016253342852,51.170643309596926],[6.901427689008415,51.1706376937218],[6.9014301197603345,51.17060450138524],[6.901278239674866,51.17060018470511],[6.9012758089229465,51.170633418951184]]},"properties":{"name":"ibis budget Duesseldorf Hilden","tourism":"hotel","website":"http://www.ibis.com/de/hotel-2667-ibis-budget-duesseldorf-hilden-ex-etap-hotel/index.shtml","building":"yes","old_name":"Etap Düsseldorf-Süd Hilden","addr:city":"Hilden","addr:street":"Forststraße","addr:country":"DE","addr:postcode":"40721","addr:housenumber":"97"}},
{"type":"Feature","geometry":{"type":"LineString","coordinates":[[6.931826337240636,51.166394816245884],[6.931952484883368,51.1663324967958],[6.931856009177864,51.166255592834204],[6.931957514025271,51.166196290869266],[6.932071004994214,51.16612999001518],[6.93217686843127,51.16620769025758],[6.93230536300689,51.16613891674206],[6.932182400487363,51.16604860173538],[6.932055330835283,51.16611670469865],[6.931945695541799,51.16604411741719],[6.931914179585874,51.16606280906126],[6.931822816841304,51.165998603682965],[6.93169557955116,51.16590020013973],[6.931491396389902,51.166006901767105],[6.9315255945548415,51.166118590626866],[6.9316207291558385,51.16615890758112],[6.93164570722729,51.16625349735841],[6.931826337240636,51.166394816245884]]},"properties":{"name":"Hotel am Stadtpark","source":"survey","tourism":"hotel","website":"http://www.hotel-stadtpark.de/","building":"yes"}},
{"type":"Feature","geometry":{"type":"LineString","coordinates":[[6.8964175740256906,51.14300289424136],[6.896307771094143,51.14296060753986],[6.8962765065953135,51.14288181765005],[6.896346160210669,51.142810320016],[6.8964691227301955,51.14279108354822],[6.896581021137536,51.142833495978266],[6.89661446493119,51.14291689591482],[6.896596527658403,51.142935084644705],[6.8967144610360265,51.14297988591716],[6.896685459651053,51.14301018649712],[6.896566436626017,51.14296530140564],[6.896546906791627,51.14298478933051],[6.8964175740256906,51.14300289424136]]},"properties":{"fax":"+49 211 77930647","name":"Achteck","email":"info@hotel-achteck.de","phone":"+49 211 77930646","amenity":"restaurant","tourism":"hotel","website":"http://www.hotel-achteck.de/","building":"yes","operator":"Dujo Babic","addr:city":"Düsseldorf","addr:street":"Emil-Barth-Straße","addr:country":"DE","addr:postcode":"40595","opening_hours":"Mo-Su 10:00-24:00","addr:housenumber":"7"}},
{"type":"Feature","geometry":{"type":"LineString","coordinates":[[6.945657818578184,51.16035402053967],[6.945754629559815,51.160396684426814],[6.945882034488022,51.16045301081613],[6.945913718082011,51.16042467998341],[6.945949005894363,51.16039328975603],[6.94598747882992,51.16035900777206],[6.945874406956136,51.16030909353867],[6.946007595397532,51.160190489608794],[6.945910700596869,51.160147699993104],[6.945777595974505,51.16026630392298],[6.945763262920082,51.1602600174956],[6.945657818578184,51.16035402053967]]},"properties":{"name":"Forstbacher Hof","amenity":"restaurant","tourism":"hotel","website":"http://www.forstbacher-hof.de/","building":"yes","addr:city":"Hilden","wheelchair":"no","addr:street":"Forstbachstraße","addr:country":"DE","addr:postcode":"40723","addr:housenumber":"47"}},
{"type":"Feature","geometry":{"type":"LineString","coordinates":[[6.6806801268830895,51.19578989921138],[6.6807764349505305,51.195712911430746],[6.6807231260463595,51.19568587979302],[6.680725221522152,51.19565918343142],[6.680805268697441,51.195641790982336],[6.680801580660045,51.19563500164077],[6.680921441875398,51.19561048457399],[6.680917334742844,51.195601013023406],[6.680959830991924,51.19559179292992],[6.6809569811448455,51.19558730861172],[6.68090199586004,51.1954847141169],[6.680792192928493,51.195504495408386],[6.680803927592933,51.19552741991356],[6.680547692812979,51.195583913940936],[6.680514165200293,51.19560139020905],[6.680498407222331,51.195615387987345],[6.680488181300461,51.19563550455496],[6.680484325625002,51.195651094894856],[6.68048323597759,51.195667607244104],[6.680485415272415,51.195686717983335],[6.680496311746538,51.195702392142266],[6.6806801268830895,51.19578989921138]]},"properties":{"fax":"+49 2131 2399 100","name":"Parkhotel Viktoria","email":"info@parkhotel-viktoria.de","phone":"+49 2131 2399 0","source":"Bing","tourism":"hotel","website":"http://www.parkhotel-viktoria.de/","building":"yes","operator":"HV HotelBetriebs GmbH","addr:city":"Neuss","addr:street":"Kaiser-Friedrich-Straße","addr:country":"DE","addr:postcode":"41460","addr:housenumber":"2"}},
{"type":"Feature","geometry":{"type":"LineString","coordinates":[[6.675744694657624,51.20799298631027],[6.675592730753124,51.20788620086387],[6.675488711334765,51.20794428745285],[6.675836560316384,51.20818891329691],[6.675983075983822,51.208107105921954],[6.67601132299751,51.208091306034476],[6.6758985025808215,51.20801201323047],[6.675827926956117,51.20805149199441],[6.675744694657624,51.20799298631027]]},"properties":{"fax":"+49-2131-11761503","name":"Further Hof","email":"info@furtherhof.com","phone":"+49-2131-11761502;+49-2131-11761508","rooms":"11","sport":"9pin","amenity":"pub","cuisine":"german;hungarian","smoking":"no","tourism":"hotel","website":"http://www.furtherhof.com/","alt_name":"KneipenCafé Klexxs","building":"yes","old_name":"Klexxs im Hof","operator":"Katalin Dezsényi","addr:city":"Neuss","biergarten":"yes","addr:street":"Further Straße","addr:country":"DE","addr:postcode":"41462","opening_hours":"Mo-Fr 16:00-24:00","internet_access":"wlan","addr:housenumber":"110"}},
{"type":"Feature","geometry":{"type":"LineString","coordinates":[[6.9507407722994685,51.22651640558615],[6.950512868352234,51.226520219352096],[6.950516724027693,51.22660969616845],[6.950744627974927,51.22660588240251],[6.9507407722994685,51.22651640558615]]},"properties":{"name":"Hotel A.Becher","tourism":"hotel","building":"yes","addr:city":"Mettmann","wheelchair":"limited","addr:street":"Talstraße","addr:country":"DE","addr:postcode":"40822","addr:housenumber":"310"}},
{"type":"Feature","geometry":{"type":"LineString","coordinates":[[6.727669578976929,51.18184501072392],[6.727607971988618,51.181865294929594],[6.727428766898811,51.18192421970889],[6.7274374002590775,51.18193658301607],[6.727351569570601,51.18195971706882],[6.727336063049734,51.18194190552458],[6.727315695025027,51.18194747949019],[6.727299685589969,51.181951879989356],[6.727243778295815,51.181892913300544],[6.72747956123203,51.181813997682184],[6.727322735823691,51.18171680951491],[6.727233217097819,51.181661405134946],[6.7273134319111705,51.18162188446149],[6.727571259252727,51.18178508011624],[6.727597829885781,51.18177627911791],[6.727669578976929,51.18184501072392]]},"properties":{"name":"Kolossos","FIXME":"they also have a hotel; separate phone for hotel +49 2131 1869-0","phone":"+49 2131 166263","amenity":"restaurant","cuisine":"greek","tourism":"hotel","website":"http://www.kolossos.de/","building":"yes","addr:city":"Neuss","biergarten":"yes","addr:street":"Kölner Straße","addr:country":"DE","addr:postcode":"41468","opening_hours":"Mo-Su 17:00-24:00; Su 12:00-24:00; PH 12:00-24:00","addr:housenumber":"454"}},
{"type":"Feature","geometry":{"type":"LineString","coordinates":[[6.739407260902226,51.24490651069209],[6.739439363591373,51.24494028976187],[6.739539611153305,51.244902906473726],[6.739645223133266,51.24486338580027],[6.739889387972653,51.244772190693766],[6.739527625031769,51.244392700027674],[6.739210705272853,51.24451109440997],[6.73927943687886,51.244583094958216],[6.739228810183704,51.24460199614987],[6.73918514046818,51.24461838277057],[6.739116408862174,51.24454629840329],[6.738994116894901,51.24441801337525],[6.7385783744975924,51.244573288131505],[6.738978358916938,51.24499301193282],[6.739030326716602,51.2450474104844],[6.739407260902226,51.24490651069209]]},"properties":{"name":"Lindner Congress Hotel","source":"Bing Sat","tourism":"hotel","website":"http://www.lindner.de/de/RST/","building":"yes","addr:city":"Düsseldorf","addr:street":"Lütticher Straße","addr:country":"DE","addr:postcode":"40547","addr:housenumber":"130"}},
{"type":"Feature","geometry":{"type":"LineString","coordinates":[[6.693033040501177,51.28989989636466],[6.693025412969291,51.290016907732934],[6.692794994451106,51.29001108231023],[6.692812009714544,51.289749483112246],[6.692880825139582,51.289751201402396],[6.692875293083489,51.289835481438786],[6.693005212582648,51.28983879229054],[6.693036896176636,51.28983958857134],[6.693033040501177,51.28989989636466]]},"properties":{"fax":"+49-2150-609939","name":"Landhaus Ilverich","email":"info@landhaus-ilverich.de","phone":"+49-2150-609930","amenity":"restaurant","cuisine":"regional","tourism":"hotel","website":"http://www.landhaus-ilverich.de/","building":"yes","operator":"Anneliese Franken","biergarten":"yes","wheelchair":"yes"}},
{"type":"Feature","geometry":{"type":"LineString","coordinates":[[6.75345893483609,51.21376170543954],[6.753753810189664,51.2138681137003],[6.753783063031733,51.21387871680781],[6.75381172914058,51.2138889846392],[6.754054888151586,51.21397678507492],[6.75380393397063,51.21424961602315],[6.753644677810371,51.21419219998643],[6.753731011413038,51.21409840648994],[6.753441416658461,51.21399388415739],[6.753358938731253,51.21408361243084],[6.753211668692529,51.21403051307425],[6.75345893483609,51.21376170543954]]},"properties":{"fax":"+49 211 311191-10","name":"Radisson Blu Media Harbour Hotel","email":"info.mediaharbour.duesseldorf@radissonblu.com","phone":"+49 211 311191-0","rooms":"135","stars":"4","tourism":"hotel","website":"http://www.radissonblu.de/mediaharbourhotel-duesseldorf","building":"yes","addr:city":"Düsseldorf","addr:street":"Hammer Straße","addr:country":"DE","addr:postcode":"40219","internet_access":"yes","addr:housenumber":"23"}},
{"type":"Feature","geometry":{"type":"LineString","coordinates":[[6.905416720546782,51.20059151435271],[6.905260062776506,51.200554214883596],[6.9051982043311,51.20045849354938],[6.905258637852967,51.20036960346624],[6.905408087186515,51.20033121434972],[6.905558374710381,51.20037278858945],[6.9056136114522815,51.200468007009476],[6.905546975322068,51.20055719045922],[6.905478578992188,51.20057521155104],[6.905416720546782,51.20059151435271]]},"properties":{"name":"Landhotel Am Zault","tourism":"hotel","building":"yes","operator":"Reinhard Feldmann","addr:city":"Düsseldorf","addr:street":"Gerresheimer Landstraße","addr:country":"DE","addr:postcode":"40627","addr:housenumber":"40"}},
{"type":"Feature","geometry":{"type":"LineString","coordinates":[[6.905128299258649,51.20078149018809],[6.9053194066509604,51.20068509830162],[6.905108685605228,51.2005211901851],[6.904917662031949,51.20061758207157],[6.905128299258649,51.20078149018809]]},"properties":{"name":"Am Zault Residenz","tourism":"hotel","building":"yes","operator":"Reinhard Feldmann","addr:city":"Düsseldorf","addr:street":"Gerresheimer Landstraße","addr:country":"DE","addr:postcode":"40627","addr:housenumber":"40"}},
{"type":"Feature","geometry":{"type":"LineString","coordinates":[[6.806395263411105,51.2922412971966],[6.806389815174043,51.2921408819966],[6.806508922018111,51.29213828360662],[6.8065028032287955,51.29202701384202],[6.8063914915546775,51.29202940268442],[6.806385205127299,51.29191561834887],[6.805798304267228,51.291928191203624],[6.80580232758075,51.292000610847026],[6.805692440830171,51.2920029158704],[6.8056999845430255,51.29214029526338],[6.80580576416105,51.292138115968555],[6.805813894607127,51.292284002993256],[6.80624749045819,51.292274699080735],[6.806245814077556,51.2922444823198],[6.806395263411105,51.2922412971966]]},"properties":{"name":"Holiday Inn","stars":"4","tourism":"hotel","website":"http://www.duesseldorf-airport-hi-hotel.de","building":"yes","addr:city":"Ratingen","addr:street":"Broichhofstraße","addr:country":"DE","addr:postcode":"40880","addr:housenumber":"3"}},
{"type":"Feature","geometry":{"type":"LineString","coordinates":[[6.741391592659056,51.17863981286064],[6.741218590177596,51.178498996887356],[6.741275335662067,51.178471588063985],[6.741201071999967,51.178411196451634],[6.741298804990947,51.17836388060823],[6.741546238772571,51.178565088193864],[6.741391592659056,51.17863981286064]]},"properties":{"name":"Landhaus-Hotel Neuss","phone":"+49-2131-31010","tourism":"hotel","building":"yes","addr:city":"Neuss","addr:street":"Hüsenstraße","addr:postcode":"41468","addr:housenumber":"17"}},
{"type":"Feature","geometry":{"type":"LineString","coordinates":[[6.715261763893068,51.18638318264857],[6.71501022297889,51.18646431947127],[6.715096808038652,51.186569805722684],[6.715371063910425,51.18648141855374],[6.71533368062228,51.18643590481952],[6.715311133302748,51.18644319707528],[6.715261763893068,51.18638318264857]]},"properties":{"fax":"+49 2131 120850","name":"Hotel Marienhof","email":"info@hotel-marienhof-neuss.de","phone":"+49 2131 203080;+49 2131 150541","source":"Bing Sat","tourism":"hotel","website":"http://www.hotel-marienhof-neuss.de/","building":"yes","operator":"Alice & Werner Siebert GbR","addr:city":"Neuss","addr:street":"Kölner Straße","addr:country":"DE","addr:postcode":"41468","addr:housenumber":"187a"}},
{"type":"Feature","geometry":{"type":"LineString","coordinates":[[6.8320723017677665,51.302356116939336],[6.831398564390838,51.30230490351096],[6.831408622674644,51.30225310334936],[6.831284570507705,51.302243715617806],[6.831300077028573,51.302164213266224],[6.831211815588176,51.302157507743686],[6.831322121433914,51.30159030435607],[6.831551198847592,51.30160769680515],[6.831481880508363,51.30198140395805],[6.8315424816682935,51.30199238425121],[6.831601238809526,51.302009902428836],[6.83165370952338,51.30204028682783],[6.831633509136736,51.30205197958276],[6.831651194952428,51.3020661030896],[6.831668964587152,51.30208031041548],[6.831833920441568,51.30199619801715],[6.83186971116811,51.3020283007063],[6.831907429732382,51.30207398207858],[6.831927713938057,51.30211530486122],[6.831938778050244,51.302155412267894],[6.831933916546404,51.30220440449193],[6.831984124146402,51.302205997053534],[6.8320723017677665,51.302356116939336]]},"properties":{"name":"Tryp","tourism":"hotel","building":"yes","addr:city":"Ratingen","addr:street":"Am Schimmersfeld","addr:country":"DE","addr:postcode":"40880","addr:housenumber":"9"}},
{"type":"Feature","geometry":{"type":"LineString","coordinates":[[6.722862892784178,51.18570240447298],[6.722957189194858,51.1856762948446],[6.7230610409751534,51.185647586826235],[6.723367064259946,51.18556288769469],[6.723112589679658,51.185201711487025],[6.7233278369531035,51.185142116155475],[6.723578120581806,51.18549729930237],[6.723804683424532,51.185434602666646],[6.723554567433894,51.185079503338784],[6.723758080042899,51.18502321885899],[6.724009537138045,51.18538012029603],[6.72423651907593,51.18531729793176],[6.723983804695308,51.184958594385535],[6.724195699207485,51.18489987915382],[6.724525359459221,51.1853678827174],[6.724752425216138,51.185305102262646],[6.724422094412148,51.18483621859923],[6.724540614522994,51.18480340344831],[6.724234591238201,51.18436909513548],[6.724111712537706,51.18440308375284],[6.72373813111335,51.18387271882966],[6.723514501936734,51.183934493456036],[6.723888921551406,51.18446598993614],[6.72367652412504,51.18452478898689],[6.723424061201513,51.184166504535824],[6.72319573815912,51.18422970408574],[6.723448033444583,51.18458782089874],[6.723235887475312,51.18464649422094],[6.72298560384661,51.18429110152647],[6.72276230994612,51.18435291806236],[6.723013683222234,51.1847098194994],[6.722803884185851,51.18476790608838],[6.722552091814578,51.184410417918116],[6.722045908682048,51.18455047952011],[6.722327372990549,51.184950086753815],[6.7223845375701785,51.18493428686634],[6.72249308321625,51.18508851388469],[6.722292504273355,51.18514400208369],[6.722323936410248,51.18518871953711],[6.722528790123761,51.185132015962154],[6.722638341598213,51.185287416446954],[6.722581596113741,51.185303090605885],[6.722862892784178,51.18570240447298]]},"properties":{"fax":"+49 800 8330-331","name":"Commundo Tagungshotel Neuss","email":"Neuss@commundo-tagungshotels.de","phone":"+49 800 8330-330","rooms":"206","source":"Bing","smoking":"no","tourism":"hotel","website":"http://www.commundo-tagungshotels.de/","building":"yes","addr:city":"Neuss","roof:shape":"flat","wheelchair":"yes","addr:street":"Humboldtstraße","addr:country":"DE","addr:postcode":"41468","internet_access":"yes","addr:housenumber":"2","internet_access:fee":"no"}},
{"type":"Feature","geometry":{"type":"LineString","coordinates":[[6.698009963147342,51.19251680793241],[6.697680889628828,51.1927276966162],[6.697823633439839,51.192806989420205],[6.697761104442179,51.19284831220284],[6.6979227075353265,51.19285459863022],[6.698107696138322,51.192850281950086],[6.698318333365023,51.1928252200596],[6.698522684164345,51.19277740130201],[6.698686466552317,51.19271520758048],[6.698823762126267,51.19264320703223],[6.698928619734943,51.1925662192516],[6.699035908095539,51.192471587564796],[6.6991172125563025,51.19235642021522],[6.699158283881843,51.19226811686531],[6.699182926677167,51.19217411382124],[6.699187704361975,51.19207290234044],[6.69917278457433,51.192015109118074],[6.698890398256481,51.19217570638284],[6.698847985826433,51.19228911353275],[6.698786965571344,51.19237360311672],[6.6987054934725165,51.19246810907498],[6.698618992231786,51.19242448126897],[6.698702140711248,51.19233768666163],[6.698761233128607,51.192256717476994],[6.698783277533948,51.192186099942774],[6.6987490793690085,51.192168581765145],[6.698119766078889,51.192582396324724],[6.698009963147342,51.19251680793241]]},"properties":{"fax":"+49 2131 262-100","name":"Dorint Kongresshotel Düsseldorf/Neuss","brand":"Novotel","email":"info.neuss@dorint.com","phone":"+49 2131 262-0","rooms":"209","stars":"4","source":"Bing","tourism":"hotel","website":"www.dorint.com","building":"yes","operator":"Neue Dorint GmbH","addr:city":"Neuss","wheelchair":"yes","addr:street":"Selikumer Straße","addr:country":"DE","addr:postcode":"41460","internet_access":"wlan","addr:housenumber":"25","rooms:wheelchair":"1","internet_access:fee":"yes"}}]}
